{"type": "FeatureCollection", "features": [ {"type": "Feature", "properties": {"norad_id": 34529, "name": "IRIDIUM 33 DEB", "group": "iridium-33-debris", "lat": 0.8476151360066414, "lon": -146.41633120878336, "alt_km": 755.7981971465897, "timestamp": "2025-12-16T21:38:57.560021+00:00", "meta": {"OBJECT_NAME": "IRIDIUM 33 DEB", "OBJECT_ID": "1997-051HW", "EPOCH": "2025-12-16T04:09:03.226464", "MEAN_MOTION": 14.4061845, "ECCENTRICITY": 0.00052348, "INCLINATION": 86.3638, "RA_OF_ASC_NODE": 33.9483, "ARG_OF_PERICENTER": 166.2156, "MEAN_ANOMALY": 193.9188, "EPHEMERIS_TYPE": 0, "CLASSIFICATION_TYPE": "U", "NORAD_CAT_ID": 34529, "ELEMENT_SET_NO": 999, "REV_AT_EPOCH": 88191, "BSTAR": 0.00010343684, "MEAN_MOTION_DOT": 3.5e-06, "MEAN_MOTION_DDOT": 0}, "tle": {"line1": "1 34529U 97051HW  25350.17295401  .00000350  00000+0  10344-3 0  9991", "line2": "2 34529  86.3638  33.9483 0005234 166.2156 193.9188 14.40618450881919"}}, "geometry": {"type": "Point", "coordinates": [-146.41633120878336, 0.8476151360066414]}}, {"type": "Feature", "properties": {"norad_id": 34538, "name": "IRIDIUM 33 DEB", "group": "iridium-33-debris", "lat": 46.869982449555145, "lon": 7.719044078032262, "alt_km": 746.8615234907629, "timestamp": "2025-12-16T21:38:57.560031+00:00", "meta": {"OBJECT_NAME": "IRIDIUM 33 DEB", "OBJECT_ID": "1997-051JF", "EPOCH": "2025-12-16T01:46:22.742976", "MEAN_MOTION": 14.42668807, "ECCENTRICITY": 0.00325061, "INCLINATION": 86.2772, "RA_OF_ASC_NODE": 4.0961, "ARG_OF_PERICENTER": 316.6047, "MEAN_ANOMALY": 111.5833, "EPHEMERIS_TYPE": 0, "CLASSIFICATION_TYPE": "U", "NORAD_CAT_ID": 34538, "ELEMENT_SET_NO": 999, "REV_AT_EPOCH": 87804, "BSTAR": 0.00067104225, "MEAN_MOTION_DOT": 2.264e-05, "MEAN_MOTION_DDOT": 0}, "tle": {"line1": "1 34538U 97051JF  25350.07387434  .00002264  00000+0  67104-3 0  9990", "line2": "2 34538  86.2772   4.0961 0032506 316.6047 111.5833 14.42668807878045"}}, "geometry": {"type": "Point", "coordinates": [7.719044078032262, 46.869982449555145]}}, {"type": "Feature", "properties": {"norad_id": 34540, "name": "IRIDIUM 33 DEB", "group": "iridium-33-debris", "lat": -54.33905411068507, "lon": 130.864040308365, "alt_km": 650.9300990391093, "timestamp": "2025-12-16T21:38:57.560042+00:00", "meta": {"OBJECT_NAME": "IRIDIUM 33 DEB", "OBJECT_ID": "1997-051JH", "EPOCH": "2025-12-16T08:15:16.014240", "MEAN_MOTION": 14.75398972, "ECCENTRICITY": 0.00169966, "INCLINATION": 86.3097, "RA_OF_ASC_NODE": 305.9587, "ARG_OF_PERICENTER": 146.519, "MEAN_ANOMALY": 5.2329, "EPHEMERIS_TYPE": 0, "CLASSIFICATION_TYPE": "U", "NORAD_CAT_ID": 34540, "ELEMENT_SET_NO": 999, "REV_AT_EPOCH": 89074, "BSTAR": 0.0010844818, "MEAN_MOTION_DOT": 7.403e-05, "MEAN_MOTION_DDOT": 0}, "tle": {"line1": "1 34540U 97051JH  25350.34393535  .00007403  00000+0  10845-2 0  9991", "line2": "2 34540  86.3097 305.9587 0016996 146.5190   5.2329 14.75398972890749"}}, "geometry": {"type": "Point", "coordinates": [130.864040308365, -54.33905411068507]}}, {"type": "Feature", "properties": {"norad_id": 34648, "name": "IRIDIUM 33 DEB", "group": "iridium-33-debris", "lat": 34.74672722992738, "lon": 97.7565046272566, "alt_km": 952.4872288031811, "timestamp": "2025-12-16T21:38:57.560052+00:00", "meta": {"OBJECT_NAME": "IRIDIUM 33 DEB", "OBJECT_ID": "1997-051JZ", "EPOCH": "2025-12-16T05:38:15.208800", "MEAN_MOTION": 14.116084, "ECCENTRICITY": 0.01817751, "INCLINATION": 86.3907, "RA_OF_ASC_NODE": 280.5351, "ARG_OF_PERICENTER": 287.9701, "MEAN_ANOMALY": 70.1742, "EPHEMERIS_TYPE": 0, "CLASSIFICATION_TYPE": "U", "NORAD_CAT_ID": 34648, "ELEMENT_SET_NO": 999, "REV_AT_EPOCH": 85010, "BSTAR": 0.0051967883, "MEAN_MOTION_DOT": 0.00011052, "MEAN_MOTION_DDOT": 0}, "tle": {"line1": "1 34648U 97051JZ  25350.23489825  .00011052  00000+0  51968-2 0  9992", "line2": "2 34648  86.3907 280.5351 0181775 287.9701  70.1742 14.11608400850107"}}, "geometry": {"type": "Point", "coordinates": [97.7565046272566, 34.74672722992738]}}, {"type": "Feature", "properties": {"norad_id": 34651, "name": "IRIDIUM 33 DEB", "group": "iridium-33-debris", "lat": 56.43661387607869, "lon": 144.42991396202916, "alt_km": 870.4556161461751, "timestamp": "2025-12-16T21:38:57.560062+00:00", "meta": {"OBJECT_NAME": "IRIDIUM 33 DEB", "OBJECT_ID": "1997-051KC", "EPOCH": "2025-12-15T16:44:43.264608", "MEAN_MOTION": 14.2586969, "ECCENTRICITY": 0.01422111, "INCLINATION": 86.2826, "RA_OF_ASC_NODE": 139.319, "ARG_OF_PERICENTER": 194.5813, "MEAN_ANOMALY": 165.1258, "EPHEMERIS_TYPE": 0, "CLASSIFICATION_TYPE": "U", "NORAD_CAT_ID": 34651, "ELEMENT_SET_NO": 999, "REV_AT_EPOCH": 85938, "BSTAR": 0.0022485877, "MEAN_MOTION_DOT": 5.97e-05, "MEAN_MOTION_DDOT": 0}, "tle": {"line1": "1 34651U 97051KC  25349.69772297  .00005970  00000+0  22486-2 0  9997", "line2": "2 34651  86.2826 139.3190 0142211 194.5813 165.1258 14.25869690859382"}}, "geometry": {"type": "Point", "coordinates": [144.42991396202916, 56.43661387607869]}}, {"type": "Feature", "properties": {"norad_id": 34652, "name": "IRIDIUM 33 DEB", "group": "iridium-33-debris", "lat": -68.74651694376973, "lon": -31.34620292241565, "alt_km": 675.7775846846062, "timestamp": "2025-12-16T21:38:57.560072+00:00", "meta": {"OBJECT_NAME": "IRIDIUM 33 DEB", "OBJECT_ID": "1997-051KD", "EPOCH": "2025-12-15T23:06:17.407008", "MEAN_MOTION": 14.62091259, "ECCENTRICITY": 0.00256988, "INCLINATION": 86.3313, "RA_OF_ASC_NODE": 338.5668, "ARG_OF_PERICENTER": 286.4484, "MEAN_ANOMALY": 103.3861, "EPHEMERIS_TYPE": 0, "CLASSIFICATION_TYPE": "U", "NORAD_CAT_ID": 34652, "ELEMENT_SET_NO": 999, "REV_AT_EPOCH": 88531, "BSTAR": 0.00069351395, "MEAN_MOTION_DOT": 3.52e-05, "MEAN_MOTION_DDOT": 0}, "tle": {"line1": "1 34652U 97051KD  25349.96270147  .00003520  00000+0  69351-3 0  9997", "line2": "2 34652  86.3313 338.5668 0025698 286.4484 103.3861 14.62091259885317"}}, "geometry": {"type": "Point", "coordinates": [-31.34620292241565, -68.74651694376973]}}, {"type": "Feature", "properties": {"norad_id": 34690, "name": "IRIDIUM 33 DEB", "group": "iridium-33-debris", "lat": 49.28212867196238, "lon": 39.40297883875344, "alt_km": 698.4679967116917, "timestamp": "2025-12-16T21:38:57.560082+00:00", "meta": {"OBJECT_NAME": "IRIDIUM 33 DEB", "OBJECT_ID": "1997-051KM", "EPOCH": "2025-12-16T03:33:18.595296", "MEAN_MOTION": 14.5510883, "ECCENTRICITY": 0.00104314, "INCLINATION": 86.3783, "RA_OF_ASC_NODE": 35.5104, "ARG_OF_PERICENTER": 18.4807, "MEAN_ANOMALY": 44.1375, "EPHEMERIS_TYPE": 0, "CLASSIFICATION_TYPE": "U", "NORAD_CAT_ID": 34690, "ELEMENT_SET_NO": 999, "REV_AT_EPOCH": 88144, "BSTAR": 0.00031614204, "MEAN_MOTION_DOT": 1.386e-05, "MEAN_MOTION_DDOT": 0}, "tle": {"line1": "1 34690U 97051KM  25350.14813189  .00001386  00000+0  31614-3 0  9999", "line2": "2 34690  86.3783  35.5104 0010431  18.4807  44.1375 14.55108830881448"}}, "geometry": {"type": "Point", "coordinates": [39.40297883875344, 49.28212867196238]}}, {"type": "Feature", "properties": {"norad_id": 34693, "name": "IRIDIUM 33 DEB", "group": "iridium-33-debris", "lat": 64.15052990469428, "lon": 114.08799636983873, "alt_km": 469.9657668360878, "timestamp": "2025-12-16T21:38:57.560093+00:00", "meta": {"OBJECT_NAME": "IRIDIUM 33 DEB", "OBJECT_ID": "1997-051KQ", "EPOCH": "2025-12-16T07:40:26.032800", "MEAN_MOTION": 15.28808586, "ECCENTRICITY": 0.00128069, "INCLINATION": 86.304, "RA_OF_ASC_NODE": 302.0453, "ARG_OF_PERICENTER": 47.13, "MEAN_ANOMALY": 105.506, "EPHEMERIS_TYPE": 0, "CLASSIFICATION_TYPE": "U", "NORAD_CAT_ID": 34693, "ELEMENT_SET_NO": 999, "REV_AT_EPOCH": 88969, "BSTAR": 0.0034849986, "MEAN_MOTION_DOT": 0.0009889, "MEAN_MOTION_DDOT": 0}, "tle": {"line1": "1 34693U 97051KQ  25350.31974575  .00098890  00000+0  34850-2 0  9998", "line2": "2 34693  86.3040 302.0453 0012806  47.1300 105.5060 15.28808586889695"}}, "geometry": {"type": "Point", "coordinates": [114.08799636983873, 64.15052990469428]}}, {"type": "Feature", "properties": {"norad_id": 34696, "name": "IRIDIUM 33 DEB", "group": "iridium-33-debris", "lat": -20.81273912992145, "lon": 24.132923544797407, "alt_km": 733.3213080490696, "timestamp": "2025-12-16T21:38:57.560103+00:00", "meta": {"OBJECT_NAME": "IRIDIUM 33 DEB", "OBJECT_ID": "1997-051KT", "EPOCH": "2025-12-16T02:20:41.724096", "MEAN_MOTION": 14.6527848, "ECCENTRICITY": 0.00739247, "INCLINATION": 86.1857, "RA_OF_ASC_NODE": 25.9602, "ARG_OF_PERICENTER": 156.1552, "MEAN_ANOMALY": 262.9531, "EPHEMERIS_TYPE": 0, "CLASSIFICATION_TYPE": "U", "NORAD_CAT_ID": 34696, "ELEMENT_SET_NO": 999, "REV_AT_EPOCH": 86722, "BSTAR": 0.0030139248, "MEAN_MOTION_DOT": 0.00016962, "MEAN_MOTION_DDOT": 0}, "tle": {"line1": "1 34696U 97051KT  25350.09770514  .00016962  00000+0  30139-2 0  9999", "line2": "2 34696  86.1857  25.9602 0073924 156.1552 262.9531 14.65278480867227"}}, "geometry": {"type": "Point", "coordinates": [24.132923544797407, -20.81273912992145]}}, {"type": "Feature", "properties": {"norad_id": 34765, "name": "IRIDIUM 33 DEB", "group": "iridium-33-debris", "lat": -39.25775705425276, "lon": -146.0248007973638, "alt_km": 753.0675798485127, "timestamp": "2025-12-16T21:38:57.560113+00:00", "meta": {"OBJECT_NAME": "IRIDIUM 33 DEB", "OBJECT_ID": "1997-051LJ", "EPOCH": "2025-12-15T13:40:10.093728", "MEAN_MOTION": 14.40472042, "ECCENTRICITY": 0.00157365, "INCLINATION": 86.3391, "RA_OF_ASC_NODE": 31.5475, "ARG_OF_PERICENTER": 201.7387, "MEAN_ANOMALY": 311.9184, "EPHEMERIS_TYPE": 0, "CLASSIFICATION_TYPE": "U", "NORAD_CAT_ID": 34765, "ELEMENT_SET_NO": 999, "REV_AT_EPOCH": 87654, "BSTAR": 0.00038671785, "MEAN_MOTION_DOT": 1.25e-05, "MEAN_MOTION_DDOT": 0}, "tle": {"line1": "1 34765U 97051LJ  25349.56956127  .00001250  00000+0  38672-3 0  9997", "line2": "2 34765  86.3391  31.5475 0015736 201.7387 311.9184 14.40472042876547"}}, "geometry": {"type": "Point", "coordinates": [-146.0248007973638, -39.25775705425276]}}]}